[{"OBJECT_NAME":"FLOCK 4G-30","OBJECT_ID":"2025-009BY","EPOCH":"2026-03-09T17:00:32.842080","MEAN_MOTION":15.27244548,"ECCENTRICITY":0.00037948,"INCLINATION":97.3969,"RA_OF_ASC_NODE":150.6012,"ARG_OF_PERICENTER":342.4152,"MEAN_ANOMALY":17.6955,"EPHEMERIS_TYPE":0,"CLASSIFICATION_TYPE":"U","NORAD_CAT_ID":62679,"ELEMENT_SET_NO":999,"REV_AT_EPOCH":12134,"BSTAR":0.00049474629,"MEAN_MOTION_DOT":0.00013147,"MEAN_MOTION_DDOT":0},{"OBJECT_NAME":"STARLINK-33630","OBJECT_ID":"2025-070T","EPOCH":"2026-03-09T12:47:13.243488","MEAN_MOTION":15.27568423,"ECCENTRICITY":0.00014983,"INCLINATION":42.9982,"RA_OF_ASC_NODE":257.0985,"ARG_OF_PERICENTER":254.5646,"MEAN_ANOMALY":105.504,"EPHEMERIS_TYPE":0,"CLASSIFICATION_TYPE":"U","NORAD_CAT_ID":63477,"ELEMENT_SET_NO":999,"REV_AT_EPOCH":5299,"BSTAR":0.001462945,"MEAN_MOTION_DOT":0.00040201,"MEAN_MOTION_DDOT":0}]
