FLOCK 4G-30             
1 62679U 25009BY  26068.70871344  .00013147  00000+0  49475-3 0  9999
2 62679  97.3969 150.6012 0003795 342.4152  17.6955 15.27244548121341
STARLINK-33630          
1 63477U 25070T   26068.53279217  .00040201  00000+0  14629-2 0  9999
2 63477  42.9982 257.0985 0001498 254.5646 105.5040 15.27568423 52996
